sat28737
1 28737U 05024A   20046.98122959 -.00000289  00000-0 -20244-4 0  9992
2 28737  97.6807  48.1619 0032528 297.6407  62.1513 14.95959658800513
